HELIOS 2A               
1 28492U 04049A   23022.54889045  .00003403  00000+0  32539-3 0  9998
2 28492  98.2612 341.1919 0015520  82.8820 277.4159 14.93880268967820
SPIRALE A               
1 33751U 09008C   23021.76243703  .00000347  00000+0  12168-2 0  9999
2 33751   2.1074  48.4220 5463728 298.4188  17.3870  4.58910681204756
SPIRALE B               
1 33752U 09008D   23021.83338275  .00002951  00000+0  12446-2 0  9999
2 33752   2.2067   0.3713 6836300  23.4433 356.7032  2.83692286131319
SAPPHIRE                
1 39088U 13009C   23021.55329865  .00000353  00000+0  14047-3 0  9991
2 39088  98.4159 216.7659 0011204 354.3678   5.7380 14.34369382518400
